[{"OBJECT_NAME":"PERUSAT 1","OBJECT_ID":"2016-058A","EPOCH":"2026-03-09T23:16:32.302848","MEAN_MOTION":14.58548827,"ECCENTRICITY":0.00012113,"INCLINATION":98.2091,"RA_OF_ASC_NODE":143.8668,"ARG_OF_PERICENTER":91.7691,"MEAN_ANOMALY":268.3647,"EPHEMERIS_TYPE":0,"CLASSIFICATION_TYPE":"U","NORAD_CAT_ID":41770,"ELEMENT_SET_NO":999,"REV_AT_EPOCH":50463,"BSTAR":7.1568116e-5,"MEAN_MOTION_DOT":2.87e-6,"MEAN_MOTION_DDOT":0},{"OBJECT_NAME":"COSMOS 2251 DEB","OBJECT_ID":"1993-036BFK","EPOCH":"2026-03-08T01:58:28.343136","MEAN_MOTION":14.54999419,"ECCENTRICITY":0.01291795,"INCLINATION":74.0385,"RA_OF_ASC_NODE":344.3945,"ARG_OF_PERICENTER":63.7454,"MEAN_ANOMALY":297.6917,"EPHEMERIS_TYPE":0,"CLASSIFICATION_TYPE":"U","NORAD_CAT_ID":37089,"ELEMENT_SET_NO":999,"REV_AT_EPOCH":67350,"BSTAR":0.0037113057,"MEAN_MOTION_DOT":0.00017895,"MEAN_MOTION_DDOT":0}]
